HERMES-3                
1 63835U 25052BR  26068.93751242  .00020316  00000+0  69958-3 0  9995
2 63835  97.3987 324.6131 0007993 112.9583 247.2502 15.30039785 54863
STARLINK-34394          
1 64669U 25139F   26068.56446304  .00024710  00000+0  84321-3 0  9999
2 64669  53.1579 127.7150 0000850  89.6476 270.4622 15.30216501 40268
